[{"OBJECT_NAME":"CENTISPACE-1 OBJECT H","OBJECT_ID":"2026-060H","EPOCH":"2026-03-23T12:25:22.722240","MEAN_MOTION":14.75422318,"ECCENTRICITY":0.0014582,"INCLINATION":54.9849,"RA_OF_ASC_NODE":25.2057,"ARG_OF_PERICENTER":302.4369,"MEAN_ANOMALY":57.522,"EPHEMERIS_TYPE":0,"CLASSIFICATION_TYPE":"U","NORAD_CAT_ID":68357,"ELEMENT_SET_NO":999,"REV_AT_EPOCH":13,"BSTAR":3.4174e-5,"MEAN_MOTION_DOT":2.3e-7,"MEAN_MOTION_DDOT":0},{"OBJECT_NAME":"CENTISPACE-1 OBJECT K","OBJECT_ID":"2026-060K","EPOCH":"2026-03-23T12:25:19.098624","MEAN_MOTION":14.75493499,"ECCENTRICITY":0.0014628,"INCLINATION":54.9797,"RA_OF_ASC_NODE":25.2076,"ARG_OF_PERICENTER":301.6776,"MEAN_ANOMALY":58.2797,"EPHEMERIS_TYPE":0,"CLASSIFICATION_TYPE":"U","NORAD_CAT_ID":68359,"ELEMENT_SET_NO":999,"REV_AT_EPOCH":13,"BSTAR":3.4261e-5,"MEAN_MOTION_DOT":2.4e-7,"MEAN_MOTION_DDOT":0}]
